{
    "links": {
        "self": "http://www.neowsapp.com/rest/v1/neo/3843640?api_key=iIulBulltgU6a56xZRHN4H3l9WmuAYTsLGpBGhQ2"
    },
    "id": "3843640",
    "neo_reference_id": "3843640",
    "name": "(2019 QH4)",
    "designation": "2019 QH4",
    "nasa_jpl_url": "http://ssd.jpl.nasa.gov/sbdb.cgi?sstr=3843640",
    "absolute_magnitude_h": 24.6,
    "estimated_diameter": {
        "kilometers": {
            "estimated_diameter_min": 0.0319561887,
            "estimated_diameter_max": 0.0714562102
        },
        "meters": {
            "estimated_diameter_min": 31.9561886721,
            "estimated_diameter_max": 71.4562101727
        },
        "miles": {
            "estimated_diameter_min": 0.0198566489,
            "estimated_diameter_max": 0.0444008168
        },
        "feet": {
            "estimated_diameter_min": 104.8431420431,
            "estimated_diameter_max": 234.436392583
        }
    },
    "is_potentially_hazardous_asteroid": false,
    "close_approach_data": [
        {
            "close_approach_date": "2019-08-11",
            "close_approach_date_full": "2019-Aug-11 03:01",
            "epoch_date_close_approach": 1565492460000,
            "relative_velocity": {
                "kilometers_per_second": "10.3042984721",
                "kilometers_per_hour": "37095.4744996457",
                "miles_per_hour": "23049.6852522937"
            },
            "miss_distance": {
                "astronomical": "0.0798341355",
                "lunar": "31.0554787095",
                "kilometers": "11943016.624091385",
                "miles": "7421046.411715713"
            },
            "orbiting_body": "Earth"
        },
        {
            "close_approach_date": "2159-03-22",
            "close_approach_date_full": "2159-Mar-22 01:31",
            "epoch_date_close_approach": 5971195860000,
            "relative_velocity": {
                "kilometers_per_second": "20.3671424027",
                "kilometers_per_hour": "73321.7126497373",
                "miles_per_hour": "45559.2608406104"
            },
            "miss_distance": {
                "astronomical": "0.2898391841",
                "lunar": "112.7474426149",
                "kilometers": "43359324.583897867",
                "miles": "26942234.9683978846"
            },
            "orbiting_body": "Earth"
        }
    ],
    "orbital_data": {
        "orbit_id": "3",
        "orbit_determination_date": "2019-10-30 08:01:41",
        "first_observation_date": "2019-08-27",
        "last_observation_date": "2019-09-03",
        "data_arc_in_days": 7,
        "observations_used": 18,
        "orbit_uncertainty": "9",
        "minimum_orbit_intersection": ".0256986",
        "jupiter_tisserand_invariant": "4.397",
        "epoch_osculation": "2458723.5",
        "eccentricity": ".4500203861655102",
        "semi_major_axis": "1.514527381554774",
        "inclination": "3.616705869385826",
        "ascending_node_longitude": "220.3938751908034",
        "orbital_period": "680.7914942500028",
        "perihelion_distance": ".8329591844492554",
        "perihelion_argument": "38.45840383738658",
        "aphelion_distance": "2.196095578660292",
        "perihelion_time": "2458661.836684936378",
        "mean_anomaly": "32.60733074721993",
        "mean_motion": ".5287962658766701",
        "equinox": "J2000",
        "orbit_class": {
            "orbit_class_type": "APO",
            "orbit_class_description": "Near-Earth asteroid orbits which cross the Earth’s orbit similar to that of 1862 Apollo",
            "orbit_class_range": "a (semi-major axis) > 1.0 AU; q (perihelion) < 1.017 AU"
        }
    },
    "is_sentry_object": false
}